CCSDS_OMM_VERS = 2.0
CREATION_DATE  = 
ORIGINATOR     = 

OBJECT_NAME    = SL-4 R/B
OBJECT_ID      = 2014-021B
CENTER_NAME    = EARTH
REF_FRAME      = TEME
TIME_SYSTEM    = UTC
MEAN_ELEMENT_THEORY = SGP/SGP4

EPOCH          = 2025-12-31T03:32:19.152960
MEAN_MOTION    = 15.37137176
ECCENTRICITY   = .0100337
INCLINATION    = 51.6084
RA_OF_ASC_NODE = 311.1066
ARG_OF_PERICENTER = 212.7412
MEAN_ANOMALY   = 146.7327

EPHEMERIS_TYPE = 0
CLASSIFICATION_TYPE = U
NORAD_CAT_ID   = 39679
ELEMENT_SET_NO = 999
REV_AT_EPOCH   = 64572
BSTAR          = .4275E-3
MEAN_MOTION_DOT = .18334E-3
MEAN_MOTION_DDOT = 0

CCSDS_OMM_VERS = 2.0
CREATION_DATE  = 
ORIGINATOR     = 

OBJECT_NAME    = ALOS-2
OBJECT_ID      = 2014-029A
CENTER_NAME    = EARTH
REF_FRAME      = TEME
TIME_SYSTEM    = UTC
MEAN_ELEMENT_THEORY = SGP/SGP4

EPOCH          = 2025-12-31T04:57:47.852640
MEAN_MOTION    = 14.79455785
ECCENTRICITY   = .0001252
INCLINATION    = 97.9214
RA_OF_ASC_NODE = 99.7891
ARG_OF_PERICENTER = 108.5286
MEAN_ANOMALY   = 251.6062

EPHEMERIS_TYPE = 0
CLASSIFICATION_TYPE = U
NORAD_CAT_ID   = 39766
ELEMENT_SET_NO = 999
REV_AT_EPOCH   = 62674
BSTAR          = .37235E-3
MEAN_MOTION_DOT = .2729E-4
MEAN_MOTION_DDOT = 0

CCSDS_OMM_VERS = 2.0
CREATION_DATE  = 
ORIGINATOR     = 

OBJECT_NAME    = YAOGAN-29
OBJECT_ID      = 2015-069A
CENTER_NAME    = EARTH
REF_FRAME      = TEME
TIME_SYSTEM    = UTC
MEAN_ELEMENT_THEORY = SGP/SGP4

EPOCH          = 2025-12-31T04:09:34.010784
MEAN_MOTION    = 14.82907031
ECCENTRICITY   = .0001371
INCLINATION    = 98.0213
RA_OF_ASC_NODE = 28.4035
ARG_OF_PERICENTER = 151.5263
MEAN_ANOMALY   = 208.6025

EPHEMERIS_TYPE = 0
CLASSIFICATION_TYPE = U
NORAD_CAT_ID   = 41038
ELEMENT_SET_NO = 999
REV_AT_EPOCH   = 54572
BSTAR          = .1779E-3
MEAN_MOTION_DOT = .1388E-4
MEAN_MOTION_DDOT = 0

CCSDS_OMM_VERS = 2.0
CREATION_DATE  = 
ORIGINATOR     = 

OBJECT_NAME    = ASTRO-H (HITOMI)
OBJECT_ID      = 2016-012A
CENTER_NAME    = EARTH
REF_FRAME      = TEME
TIME_SYSTEM    = UTC
MEAN_ELEMENT_THEORY = SGP/SGP4

EPOCH          = 2025-12-30T13:04:40.872000
MEAN_MOTION    = 15.09483600
ECCENTRICITY   = .0009605
INCLINATION    = 30.9999
RA_OF_ASC_NODE = 82.5743
ARG_OF_PERICENTER = 357.4048
MEAN_ANOMALY   = 2.6539

EPHEMERIS_TYPE = 0
CLASSIFICATION_TYPE = U
NORAD_CAT_ID   = 41337
ELEMENT_SET_NO = 999
REV_AT_EPOCH   = 54177
BSTAR          = .34951E-3
MEAN_MOTION_DOT = .5837E-4
MEAN_MOTION_DDOT = 0

CCSDS_OMM_VERS = 2.0
CREATION_DATE  = 
ORIGINATOR     = 

OBJECT_NAME    = HXMT (HUIYAN)
OBJECT_ID      = 2017-034A
CENTER_NAME    = EARTH
REF_FRAME      = TEME
TIME_SYSTEM    = UTC
MEAN_ELEMENT_THEORY = SGP/SGP4

EPOCH          = 2025-12-31T04:03:16.944768
MEAN_MOTION    = 15.16488868
ECCENTRICITY   = .0031919
INCLINATION    = 43.0155
RA_OF_ASC_NODE = 37.3451
ARG_OF_PERICENTER = 163.8098
MEAN_ANOMALY   = 196.3776

EPHEMERIS_TYPE = 0
CLASSIFICATION_TYPE = U
NORAD_CAT_ID   = 42758
ELEMENT_SET_NO = 999
REV_AT_EPOCH   = 47213
BSTAR          = .55165E-3
MEAN_MOTION_DOT = .10857E-3
MEAN_MOTION_DDOT = 0

CCSDS_OMM_VERS = 2.0
CREATION_DATE  = 
ORIGINATOR     = 

OBJECT_NAME    = CZ-2C R/B
OBJECT_ID      = 2018-054D
CENTER_NAME    = EARTH
REF_FRAME      = TEME
TIME_SYSTEM    = UTC
MEAN_ELEMENT_THEORY = SGP/SGP4

EPOCH          = 2025-12-31T03:59:55.235328
MEAN_MOTION    = 15.78441934
ECCENTRICITY   = .0013248
INCLINATION    = 35.1334
RA_OF_ASC_NODE = 55.5667
ARG_OF_PERICENTER = 326.8497
MEAN_ANOMALY   = 33.1406

EPHEMERIS_TYPE = 0
CLASSIFICATION_TYPE = U
NORAD_CAT_ID   = 43521
ELEMENT_SET_NO = 999
REV_AT_EPOCH   = 41796
BSTAR          = .9169E-3
MEAN_MOTION_DOT = .169173E-2
MEAN_MOTION_DDOT = 0

CCSDS_OMM_VERS = 2.0
CREATION_DATE  = 
ORIGINATOR     = 

OBJECT_NAME    = SAOCOM 1A
OBJECT_ID      = 2018-076A
CENTER_NAME    = EARTH
REF_FRAME      = TEME
TIME_SYSTEM    = UTC
MEAN_ELEMENT_THEORY = SGP/SGP4

EPOCH          = 2025-12-31T04:04:32.320992
MEAN_MOTION    = 14.82155018
ECCENTRICITY   = .0001406
INCLINATION    = 97.8848
RA_OF_ASC_NODE = 189.3232
ARG_OF_PERICENTER = 82.0858
MEAN_ANOMALY   = 278.0515

EPHEMERIS_TYPE = 0
CLASSIFICATION_TYPE = U
NORAD_CAT_ID   = 43641
ELEMENT_SET_NO = 999
REV_AT_EPOCH   = 39121
BSTAR          = -.20663E-4
MEAN_MOTION_DOT = -.217E-5
MEAN_MOTION_DDOT = 0

CCSDS_OMM_VERS = 2.0
CREATION_DATE  = 
ORIGINATOR     = 

OBJECT_NAME    = H-2A R/B
OBJECT_ID      = 2018-084L
CENTER_NAME    = EARTH
REF_FRAME      = TEME
TIME_SYSTEM    = UTC
MEAN_ELEMENT_THEORY = SGP/SGP4

EPOCH          = 2025-12-31T02:35:26.035008
MEAN_MOTION    = 15.38133745
ECCENTRICITY   = .0026146
INCLINATION    = 98.8768
RA_OF_ASC_NODE = 203.0042
ARG_OF_PERICENTER = 261.7793
MEAN_ANOMALY   = 98.0481

EPHEMERIS_TYPE = 0
CLASSIFICATION_TYPE = U
NORAD_CAT_ID   = 43682
ELEMENT_SET_NO = 999
REV_AT_EPOCH   = 39522
BSTAR          = .85981E-3
MEAN_MOTION_DOT = .32652E-3
MEAN_MOTION_DDOT = 0

CCSDS_OMM_VERS = 2.0
CREATION_DATE  = 
ORIGINATOR     = 

OBJECT_NAME    = SAOCOM 1B
OBJECT_ID      = 2020-059A
CENTER_NAME    = EARTH
REF_FRAME      = TEME
TIME_SYSTEM    = UTC
MEAN_ELEMENT_THEORY = SGP/SGP4

EPOCH          = 2025-12-31T04:49:31.622016
MEAN_MOTION    = 14.82159888
ECCENTRICITY   = .0001406
INCLINATION    = 97.8844
RA_OF_ASC_NODE = 188.4533
ARG_OF_PERICENTER = 84.7228
MEAN_ANOMALY   = 275.4145

EPHEMERIS_TYPE = 0
CLASSIFICATION_TYPE = U
NORAD_CAT_ID   = 46265
ELEMENT_SET_NO = 999
REV_AT_EPOCH   = 28860
BSTAR          = .11898E-3
MEAN_MOTION_DOT = .895E-5
MEAN_MOTION_DDOT = 0

CCSDS_OMM_VERS = 2.0
CREATION_DATE  = 
ORIGINATOR     = 

OBJECT_NAME    = CSS (TIANHE)
OBJECT_ID      = 2021-035A
CENTER_NAME    = EARTH
REF_FRAME      = TEME
TIME_SYSTEM    = UTC
MEAN_ELEMENT_THEORY = SGP/SGP4

EPOCH          = 2025-12-31T02:14:33.345600
MEAN_MOTION    = 15.59942629
ECCENTRICITY   = .0009747
INCLINATION    = 41.4668
RA_OF_ASC_NODE = 265.2206
ARG_OF_PERICENTER = 186.8831
MEAN_ANOMALY   = 173.1875

EPHEMERIS_TYPE = 0
CLASSIFICATION_TYPE = U
NORAD_CAT_ID   = 48274
ELEMENT_SET_NO = 999
REV_AT_EPOCH   = 26689
BSTAR          = .32908E-3
MEAN_MOTION_DOT = .27123E-3
MEAN_MOTION_DDOT = 0

CCSDS_OMM_VERS = 2.0
CREATION_DATE  = 
ORIGINATOR     = 

OBJECT_NAME    = COSMOS 2550
OBJECT_ID      = 2021-056A
CENTER_NAME    = EARTH
REF_FRAME      = TEME
TIME_SYSTEM    = UTC
MEAN_ELEMENT_THEORY = SGP/SGP4

EPOCH          = 2025-12-31T04:18:54.109152
MEAN_MOTION    = 15.33836810
ECCENTRICITY   = .0008351
INCLINATION    = 67.1441
RA_OF_ASC_NODE = 248.1581
ARG_OF_PERICENTER = 269.6155
MEAN_ANOMALY   = 90.4042

EPHEMERIS_TYPE = 0
CLASSIFICATION_TYPE = U
NORAD_CAT_ID   = 48865
ELEMENT_SET_NO = 999
REV_AT_EPOCH   = 25295
BSTAR          = .55791E-6
MEAN_MOTION_DOT = -.173E-5
MEAN_MOTION_DDOT = 0

CCSDS_OMM_VERS = 2.0
CREATION_DATE  = 
ORIGINATOR     = 

OBJECT_NAME    = CZ-2C R/B
OBJECT_ID      = 2022-058K
CENTER_NAME    = EARTH
REF_FRAME      = TEME
TIME_SYSTEM    = UTC
MEAN_ELEMENT_THEORY = SGP/SGP4

EPOCH          = 2025-12-31T03:04:31.090368
MEAN_MOTION    = 15.49579460
ECCENTRICITY   = .0044078
INCLINATION    = 50.1917
RA_OF_ASC_NODE = 309.7067
ARG_OF_PERICENTER = 273.8841
MEAN_ANOMALY   = 85.7089

EPHEMERIS_TYPE = 0
CLASSIFICATION_TYPE = U
NORAD_CAT_ID   = 52794
ELEMENT_SET_NO = 999
REV_AT_EPOCH   = 19948
BSTAR          = .78781E-3
MEAN_MOTION_DOT = .45929E-3
MEAN_MOTION_DDOT = 0

